408P/Novichonok-Gerke,e,19.3449,189.4503,226.7568,4.747772,0.0952729,0.26792325,128.8390,06/19.0/2026,2000,g 11.0,4.0
# From MPC191631
410P/NEAT-LINEAR,e,9.3890,139.8827,313.4071,6.658823,0.0573598,0.51144024,104.4017,06/19.0/2026,2000,g 12.5,4.0
# From MPC191631
411P/Christensen,e,12.3842,77.6395,46.6140,5.812763,0.0703283,0.58193730,138.5019,06/19.0/2026,2000,g 13.5,4.0
# From MPC191632
412P/WISE,e,8.9288,0.8170,155.8196,3.112743,0.1794689,0.47902208,3.4925,06/19.0/2026,2000,g 17.0,4.0
# From MPC191632
413P/Larson,e,15.9477,38.9285,186.6419,3.738362,0.1363585,0.41730310,245.8781,06/19.0/2026,2000,g 14.0,4.0
# From MPC191632
414P/STEREO,e,23.4043,257.8156,210.7189,2.792787,0.2111774,0.81226739,56.1073,06/19.0/2026,2000,g 19.0,4.0
# From MPC191632
415P/Tenagra,e,31.8180,160.2588,345.9824,4.106460,0.1184411,0.19587779,230.7887,06/19.0/2026,2000,g 12.0,4.0
# From MPC191632
416P/Scotti,e,3.3646,355.7194,134.5064,4.005217,0.1229603,0.45571756,239.3824,06/19.0/2026,2000,g 15.5,4.0
# From MPC191632
417P/NEOWISE,e,11.3273,95.2466,142.1035,3.384032,0.1583261,0.53534546,306.7507,06/19.0/2026,2000,g 16.5,4.0
# From MPC191632
418P/LINEAR,e,5.7881,277.2303,307.6680,5.086432,0.0859180,0.66452322,146.6006,06/19.0/2026,2000,g 13.0,4.0
# From MPC191632
419P/PANSTARRS,e,2.7891,40.3230,187.6014,3.541544,0.1478819,0.27169995,252.3754,06/19.0/2026,2000,g 12.5,4.0
# From MPC191632
420P/Hill,e,14.5484,173.2286,156.4085,5.468370,0.0770757,0.49448932,115.3387,06/19.0/2026,2000,g 11.5,4.0
# From MPC191633
422P/Christensen,e,39.5799,36.0078,304.7010,6.270283,0.0627731,0.50519244,101.8018,06/19.0/2026,2000,g 11.0,4.0
# From MPC191633
423P/Lemmon,e,8.3388,33.2959,81.3013,6.187166,0.0640422,0.12268191,110.2937,06/19.0/2026,2000,g  8.0,4.0
# From MPC191633
425P/Kowalski,e,16.4029,210.0952,201.0397,6.355138,0.0615200,0.54315183,106.5980,06/19.0/2026,2000,g 12.0,4.0
# From MPC191633
426P/PANSTARRS,e,17.7839,280.3967,118.3789,3.186546,0.1732701,0.16070476,175.5515,06/19.0/2026,2000,g 13.5,4.0
# From MPEC 2026-L50
427P/ATLAS,e,11.8650,252.3246,99.5986,3.163581,0.1751603,0.31522250,208.2857,06/19.0/2026,2000,g 14.0,4.0
# From MPC191633
428P/Gibbs,e,8.5024,299.3050,36.8599,3.489843,0.1511803,0.51806802,281.8536,06/19.0/2026,2000,g 15.0,4.0
# From MPC191633
429P/LINEAR-Hill,e,7.5141,321.9931,75.7502,3.556937,0.1469230,0.49038003,239.3959,06/19.0/2026,2000,g 15.5,4.0
# From MPC191633
430P/Scotti,e,4.4765,54.6338,94.5016,3.102211,0.1803836,0.50056119,299.1414,06/19.0/2026,2000,g 16.5,4.0
# From MPC191633
431P/Scotti,e,22.3705,202.8211,200.0153,3.477893,0.1519602,0.47694968,241.1434,06/19.0/2026,2000,g 14.0,4.0
# From MPC191634
432P/PANSTARRS,e,10.0662,239.1278,105.2083,3.039045,0.1860366,0.24069911,326.6433,06/19.0/2026,2000,g 17.0,4.0
# From MPC191634
434P/Tenagra,e,6.3364,288.9102,128.4852,4.137749,0.1171003,0.27378731,198.6448,06/19.0/2026,2000,g 13.0,4.0
# From MPC191634
435P/PANSTARRS,e,18.8741,98.5237,244.1606,3.022299,0.1875849,0.31744094,335.6916,06/19.0/2026,2000,g 17.0,4.0
# From MPC191634
437P/Lemmon-PANSTARRS,e,3.6879,245.8425,207.1760,4.571460,0.1008374,0.25474003,141.0090,06/19.0/2026,2000,g 13.0,4.0
# From MPEC 2026-L50
438P/Christensen,e,8.2805,260.1116,58.9233,3.854401,0.1302473,0.41411874,295.7929,06/19.0/2026,2000,g 14.5,4.0
# From MPC191634
439P/LINEAR,e,7.1107,56.3986,342.1358,3.492582,0.1510025,0.46871294,265.4613,06/19.0/2026,2000,g 13.5,4.0
# From MPEC 2026-L50
441P/PANSTARRS,e,2.5748,143.5891,178.7932,4.129950,0.1174321,0.19425265,33.2365,06/19.0/2026,2000,g 13.5,4.0
# From MPC191634
442P/McNaught,e,6.0612,31.8043,310.5926,4.946604,0.0895867,0.53300235,125.6393,06/19.0/2026,2000,g 13.5,4.0
# From MPEC 2026-L50
443P/PANSTARRS-Christensen,e,19.8884,108.9313,144.9922,4.123999,0.1176864,0.28277947,158.8255,06/19.0/2026,2000,g 13.5,4.0
# From MPC191635
445P/Lemmon-PANSTARRS,e,1.0898,126.6089,213.0150,4.041930,0.1212889,0.41512057,170.1781,06/19.0/2026,2000,g 15.0,4.0
# From MPC191635
447P/Sheppard-Tholen,e,7.4418,302.6390,97.1836,5.620094,0.0739756,0.17674994,104.0447,06/19.0/2026,2000,g 12.0,4.0
# From MPC191635
448P/PANSTARRS,e,12.1415,161.7433,218.8002,3.637579,0.1420644,0.41769035,196.4301,06/19.0/2026,2000,g 16.0,4.0
# From MPC191635
449P/Leonard,e,15.4662,242.5102,176.7928,3.599331,0.1443349,0.47958881,293.1237,06/19.0/2026,2000,g 16.0,4.0
# From MPEC 2026-KB8
450P/LONEOS,e,11.2071,123.7764,31.9694,7.523763,0.0477586,0.28889306,344.8862,06/19.0/2026,2000,g  6.5,4.0
# From MPC191635
451P/Christensen,e,26.4882,300.8608,186.8557,6.354531,0.0615289,0.55929825,79.9072,06/19.0/2026,2000,g 13.5,4.0
# From MPC191635
452P/Sheppard-Jewitt,e,6.4226,123.6583,37.1674,7.317277,0.0497943,0.42893859,57.2305,06/19.0/2026,2000,g  9.0,4.0
# From MPC191636
453P/WISE-Lemmon,e,27.0466,42.8743,70.9593,5.470301,0.0770349,0.58312180,92.7075,06/19.0/2026,2000,g 14.0,4.0
# From MPC191636
454P/PANSTARRS,e,19.8017,54.5852,20.2513,4.213247,0.1139669,0.36102970,162.2273,06/19.0/2026,2000,g 14.0,4.0
# From MPC191636
455P/PANSTARRS,e,14.1333,146.1704,237.5241,3.154404,0.1759252,0.30403081,213.0042,06/19.0/2026,2000,g 17.0,4.0
# From MPC191636
456P/PANSTARRS,e,16.9649,243.1373,233.0010,3.168572,0.1747466,0.11550942,75.1727,06/19.0/2026,2000,g 13.5,4.0
# From MPC191636
457P/Lemmon-PANSTARRS,e,5.2255,175.9551,104.3331,2.645532,0.2290522,0.11806008,153.0399,06/19.0/2026,2000,g 15.5,4.0
# From MPC191636
458P/Jahn,e,13.6219,1.5338,105.0165,3.860054,0.1299613,0.31714874,172.4398,06/19.0/2026,2000,g 14.0,4.0
# From MPC191636
459P/Catalina,e,7.1715,256.9791,205.2554,3.240580,0.1689546,0.57780950,204.9413,06/19.0/2026,2000,g 15.5,4.0
# From MPC191636
461P/WISE,e,18.3927,194.3655,174.8153,3.145207,0.1766974,0.56933313,303.7849,06/19.0/2026,2000,g 18.5,4.0
# From MPC191637
464P/PANSTARRS,e,21.6724,309.5749,267.4576,4.682052,0.0972859,0.28099013,117.4746,06/19.0/2026,2000,g 10.5,4.0
# From MPC191637
465P/Hill,e,25.8643,217.8979,140.9427,5.999035,0.0670783,0.61277159,76.3267,06/19.0/2026,2000,g 12.5,4.0
# From MPC191637
466P/PANSTARRS,e,16.8045,114.9556,195.7519,3.973830,0.1244200,0.45335787,151.1592,06/19.0/2026,2000,g 14.0,4.0
# From MPC191637
467P/LINEAR-Grauer,e,2.4797,43.2617,266.7921,5.821880,0.0701632,0.05405182,91.8832,06/19.0/2026,2000,g  9.0,4.0
# From MPC191637
468P/SidingSpring,e,50.4589,356.1372,322.5112,7.110500,0.0519821,0.44451552,48.9392,06/19.0/2026,2000,g 11.5,4.0
# From MPC191637
469P/PANSTARRS,e,20.1700,178.9597,43.5047,4.345095,0.1088191,0.30841144,20.9557,06/19.0/2026,2000,g 13.5,4.0
# From MPC191637
470P/PANSTARRS,e,8.8441,246.1516,151.6044,4.460154,0.1046355,0.38912736,95.8317,06/19.0/2026,2000,g 15.5,4.0
# From MPC191637
471P/LINEAR-Lemmon,e,4.7961,283.3011,94.6647,5.681606,0.0727775,0.62747810,66.4200,06/19.0/2026,2000,g 12.0,4.0
# From MPC194204
472P/NEAT-LINEAR,e,10.8308,205.7766,218.7566,7.749507,0.0456870,0.56317569,32.2491,06/19.0/2026,2000,g 10.5,4.0
# From MPC191638
473P/NEAT,e,56.8668,22.1908,42.9573,7.973728,0.0437736,0.82348895,36.9393,06/19.0/2026,2000,g 13.5,4.0
# From MPC191638
474P/Hogan,e,1.0967,26.7518,11.2620,3.131505,0.1778584,0.18766568,190.2795,06/19.0/2026,2000,g 15.5,4.0
# From MPC191638
475P/Spacewatch-LINEAR,e,14.5249,147.3460,40.4571,7.324475,0.0497209,0.44330017,37.1400,06/19.0/2026,2000,g 11.0,4.0
# From MPC191638
476P/PANSTARRS,e,19.0045,57.0512,46.7715,4.775136,0.0944551,0.34568693,57.6589,06/19.0/2026,2000,g 12.5,4.0
# From MPC191638
477P/PANSTARRS,e,8.9142,59.1346,305.8344,3.001184,0.1895681,0.41764728,171.6927,06/19.0/2026,2000,g 14.5,4.0
# From MPC191638
478P/ATLAS,e,12.5257,127.2570,13.3062,3.649288,0.1413813,0.34383239,109.9357,06/19.0/2026,2000,g 13.5,4.0
# From MPC191638
480P/PANSTARRS,e,13.7130,229.9874,214.5285,4.613265,0.0994698,0.24601166,114.5839,06/19.0/2026,2000,g 12.0,4.0
# From MPC191638
481P/Lemmon-PANSTARRS,e,6.0824,93.5533,356.8934,4.684324,0.0972151,0.34321485,104.5598,06/19.0/2026,2000,g 13.5,4.0
# From MPC191638
482P/PANSTARRS,e,24.4905,126.0692,339.7712,3.757945,0.1352939,0.49223617,150.5388,06/19.0/2026,2000,g 13.5,4.0
# From MPEC 2026-HI3
483P/PANSTARRS,e,14.1829,198.7918,50.0282,3.192571,0.1727799,0.22138610,271.4386,06/19.0/2026,2000,g 16.5,4.0
# From MPC186638
483P-A/PANSTARRS,e,14.1829,198.7918,50.0284,3.192571,0.1727799,0.22138649,271.4382,06/19.0/2026,2000,g 13.5,4.0
# From MPC185666
483P-B/PANSTARRS,e,14.1837,198.7914,50.0192,3.192485,0.1727869,0.22133048,271.4754,06/19.0/2026,2000,g 17.0,4.0
# From MPC191639
484P/Spacewatch,e,14.4749,265.3539,240.8792,3.755232,0.1354406,0.43329134,274.6049,06/19.0/2026,2000,g 16.0,4.0
# From MPC191639
485P/Sheppard-Tholen,e,10.0155,261.6501,196.1910,6.854942,0.0549159,0.41705707,56.4754,06/19.0/2026,2000,g 13.0,4.0
# From MPC194204
486P/Leonard,e,2.2098,219.0234,93.9299,3.626403,0.1427217,0.36325950,62.9753,06/19.0/2026,2000,g 14.5,4.0
# From MPC191639
487P/SidingSpring,e,39.3655,49.2022,0.8344,5.159184,0.0841071,0.64818422,51.0144,06/19.0/2026,2000,g 13.5,4.0
# From MPC191639
488P/NEAT-PANSTARRS,e,11.7966,322.4539,4.5700,3.795719,0.1332794,0.54759720,101.1835,06/19.0/2026,2000,g 16.5,4.0
# From MPEC 2024-Q14
489P/Denning,e,4.0260,20.5971,109.4229,4.423990,0.1059212,0.64705415,20.8344,06/19.0/2026,2000,g 15.5,4.0
# From MPEC 2026-KB8
491P/Spacewatch-PANSTARRS,e,9.3670,311.6832,298.8009,5.012192,0.0878340,0.25878201,57.2169,06/19.0/2026,2000,g  9.5,4.0
# From MPC194204
492P/LINEAR,e,11.4002,11.3058,40.9781,5.756522,0.0713615,0.69034348,49.8623,06/19.0/2026,2000,g 15.0,4.0
# From MPEC 2026-KB8
493P/LONEOS,e,24.1099,1.0300,83.3007,7.190642,0.0511155,0.46833819,7.9600,06/19.0/2026,2000,g  8.5,4.0
# From MPC191640
494P/PANSTARRS,e,7.7891,245.0442,48.8904,3.794406,0.1333486,0.35643843,99.9119,06/19.0/2026,2000,g 16.0,4.0
# From MPEC 2026-L50
495P/Christensen,e,26.3500,291.6138,141.3370,4.775141,0.0944550,0.27557065,22.6236,06/19.0/2026,2000,g 11.5,4.0
# From MPC191640
496P/Hill,e,14.8125,63.5899,42.2686,6.101111,0.0654019,0.73418936,30.4592,06/19.0/2026,2000,g 14.0,4.0
# From MPC191640
